#aV2012 12  7  0  0  0.00000000     288 DD+AD WGS84 FIT  NGA
## 1717 432000.00000000   300.00000000 56268 0.0000000000000
+   31     1  2  3  4  5  6  7  8  9 10 11 12 13 14 15 16 17
+         18 19 20 21 22 23 24 25 26 28 29 30 31 32  0  0  0
+          0  0  0  0  0  0  0  0  0  0  0  0  0  0  0  0  0
+          0  0  0  0  0  0  0  0  0  0  0  0  0  0  0  0  0
+          0  0  0  0  0  0  0  0  0  0  0  0  0  0  0  0  0
++         2  2  2  2  2  2  2  2  2  2  2  2  2  2  2  2  2
++         2  2  2  2  2  2  2  2  2  2  2  2  2  2  2  0  0
++         0  0  0  0  0  0  0  0  0  0  0  0  0  0  0  0  0
++         0  0  0  0  0  0  0  0  0  0  0  0  0  0  0  0  0
++         0  0  0  0  0  0  0  0  0  0  0  0  0  0  0  0  0
%c cc cc ccc ccc cccc cccc cccc cccc ccccc ccccc ccccc ccccc
%c cc cc ccc ccc cccc cccc cccc cccc ccccc ccccc ccccc ccccc
%f  0.0000000  0.000000000  0.00000000000  0.000000000000000
%f  0.0000000  0.000000000  0.00000000000  0.000000000000000
%i    0    0    0    0      0      0      0      0         0
%i    0    0    0    0      0      0      0      0         0
/*      NGA, ST. LOUIS,MO.                                  
/*   EPHEMERIS COMPUTED FROM  1 DAYS OF DATA
/*   EPOCHA SMOOTHER  
/* CCCCCCCCCCCCCCCCCCCCCCCCCCCCCCCCCCCCCCCCCCCCCCCCCCCCCCCCC
*  2012 12  7  5 20  0.00000000                                                 
P  1 -16997.044501 -13821.935155 -15084.780768    286.188321                    
V  1  19143.117761   1426.551648 -22851.420795      0.019986                    
P  2  -4650.406219  15161.288524  21434.042801    410.960545                    
V  2 -26533.174145  -4852.476349  -2854.834412      0.010213                    
P  3   6271.588022 -23837.096077 -10078.370630    138.325481                    
V  3   9357.657243  -8535.829028  27610.741530      0.050746                    
P  4 -20448.522211   7575.951502  15084.319241     67.856812                    
V  4 -18856.377982  -5840.456817 -21926.423738      0.112038                    
P  5   1192.164328  24487.665135  10006.260535   -371.264040                    
V  5  -7085.471555 -11070.053374  27996.358284     -0.023403                    
P  6  12651.330239 -22642.727671  -4732.474247    432.777717                    
V  6   6679.699843  -2748.304566  30711.886829     -0.127747                    
P  7 -25830.420078  -6552.115093   1963.133566    154.153732                    
V  7   2784.114828  -1578.312228  31763.576090      0.044443                    
P  8 -24799.824486   -449.985833 -10183.702232      3.289724                    
V  8 -12030.625535  -4608.790282  28645.123957      0.002138                    
P  9   9071.694694  15268.356073 -20264.201664    204.862092                    
V  9 -24278.213634  -3464.250859 -13904.884029      0.027161                    
P 10 -11997.607885  11062.682015  20603.468340    -61.226605                    
V 10  -9622.929661 -25187.897642   8225.444727     -0.014739                    
P 11 -11591.990374 -14639.641988 -19398.575658   -330.700887                    
V 11  23686.141127  -4143.540870 -10980.186032     -0.038646                    
P 12  11767.304304  23147.342594   6035.914555    105.543068                    
V 12    556.502514   7842.552325 -30879.457711      0.020412                    
P 13 -16530.116662  -2940.701824  20473.486052    161.994737                    
V 13  18290.265005 -18788.370043  11881.855345     -0.027075                    
P 14  21169.653608 -12966.279494  -9046.117173    217.898410                    
V 14  -6600.122756  10027.984048 -29324.338895      0.005780                    
P 15   2114.026760  18814.690034 -18542.796596   -101.540828                    
V 15 -16275.293135  17276.431433  15924.802298     -0.010042                    
P 16   -327.900795 -24346.690655  10200.122488   -250.511546                    
V 16   5831.351006  11853.328301  28773.124836     -0.004602                    
P 17 -20693.498248  14141.268134  -8215.606802     71.743826                    
V 17   5244.195873  -9790.382332 -29616.393128     -0.035759                    
P 18  17250.053659   6533.221849 -18847.115987    228.183451                    
V 18   6688.342937  23876.989002  13765.120687      0.018623                    
P 19   1968.857109 -19431.597047 -17885.847267   -328.720900                    
V 19  17468.968343 -14627.035087  18286.246765     -0.033476                    
P 20 -14156.540369 -21506.873189   6504.614584     75.644749                    
V 20     79.633723  -9231.890988 -29500.978926      0.012461                    
P 21  26497.750259   4147.505993   -995.112282   -266.792206                    
V 21   1233.146384   3574.540766  30696.324145     -0.023628                    
P 22  13679.474278  -8517.796739 -20916.715890    152.818163                    
V 22   9507.284992  25428.446680  -4228.992654      0.008320                    
P 23  -8536.252476 -13157.147462  21450.622431    136.580071                    
V 23  18331.146028 -20050.785555  -5392.496468     -0.038097                    
P 24  13485.643601  14787.834102 -17465.975620      2.775082                    
V 24 -22145.223342  -2136.275372 -18890.739144     -0.006209                    
P 25  16449.506608  13758.418607  15680.225784     55.043855                    
V 25   5246.121438  19297.989319 -22313.539030      0.021409                    
P 26 -10085.495029  21430.802593 -12269.289500   -183.823611                    
V 26 -11812.763240   8952.714712  27062.487120      0.135552                    
P 28 -14043.277921   3624.713834 -21680.976692    211.595782                    
V 28  -8288.713904 -27647.984193    527.039068      0.035514                    
P 29  15780.063692   4372.023571  20956.140108    384.827635                    
V 29 -17497.249502  19900.199250   9083.166281      0.039884                    
P 30   5688.907532 -17923.719776  18414.671748   -292.930885                    
V 30  11725.311402  21114.041890  16588.384397      0.138968                    
P 31  16979.067823  -9197.412050  18545.380892    290.887332                    
V 31  22335.501377   5608.244547 -17600.886824      0.020723                    
P 32  -6384.921654 -26062.155571   -592.423834   -514.625316                    
V 32   2855.220144    220.426129 -31179.412738     -0.034692                    
EOF
